******** Week 999 almanac for PRN-19 ********
ID:                         19
Health:                     000
Eccentricity:               0.9563446045E-002
Time of Applicability(s):  147456.0000
Orbital Inclination(rad):   0.9813186690
Rate of Right Ascen(r/s):  -0.7828897534E-008
SQRT(A)  (m 1/2):           5153.559570
Right Ascen at Week(rad):   0.7566315295E-001
Argument of Perigee(rad):   1.300657292
Mean Anom(rad):             0.2802227492E+001
Af0(s):                    -0.3929138184E-003
Af1(s/s):                   0.3637978807E-011
week:                        999

******** Week 999 almanac for PRN-20 ********
ID:                         20
Health:                     000
Eccentricity:               0.4382133484E-002
Time of Applicability(s):  147456.0000
Orbital Inclination(rad):   0.9289356219
Rate of Right Ascen(r/s):  -0.8137481816E-008
SQRT(A)  (m 1/2):           5153.611816
Right Ascen at Week(rad):   0.1958645168E+001
Argument of Perigee(rad):   2.133028374
Mean Anom(rad):            -0.2293638334E+001
Af0(s):                     0.5168914795E-003
Af1(s/s):                   0.0000000000E+000
week:                        999

******** Week 999 almanac for PRN-21 ********
ID:                         21
Health:                     000
Eccentricity:               0.2437925339E-001
Time of Applicability(s):  147456.0000
Orbital Inclination(rad):   0.9454558760
Rate of Right Ascen(r/s):  -0.8011762293E-008
SQRT(A)  (m 1/2):           5153.557129
Right Ascen at Week(rad):   0.9716262773E+000
Argument of Perigee(rad):  -1.520450972
Mean Anom(rad):             0.2385237885E+001
Af0(s):                    -0.3204345703E-003
Af1(s/s):                   0.7275957614E-011
week:                        999

******** Week 999 almanac for PRN-22 ********
ID:                         22
Health:                     000
Eccentricity:               0.7019519806E-002
Time of Applicability(s):  147456.0000
Orbital Inclination(rad):   0.9256938891
Rate of Right Ascen(r/s):  -0.8206056101E-008
SQRT(A)  (m 1/2):           5153.624023
Right Ascen at Week(rad):   0.2008087960E+001
Argument of Perigee(rad):  -1.473936076
Mean Anom(rad):            -0.7121625650E+000
Af0(s):                    -0.5474090576E-003
Af1(s/s):                  -0.1091393642E-010
week:                        999

******** Week 999 almanac for PRN-23 ********
ID:                         23
Health:                     000
Eccentricity:               0.1262521744E-001
Time of Applicability(s):  147456.0000
Orbital Inclination(rad):   0.9438260214
Rate of Right Ascen(r/s):  -0.8034620388E-008
SQRT(A)  (m 1/2):           5153.655273
Right Ascen at Week(rad):   0.3102875368E+001
Argument of Perigee(rad):  -2.323916478
Mean Anom(rad):            -0.1340590976E+001
Af0(s):                    -0.2088546753E-003
Af1(s/s):                   0.0000000000E+000
week:                        999

******** Week 999 almanac for PRN-24 ********
ID:                         24
Health:                     000
Eccentricity:               0.7424354553E-002
Time of Applicability(s):  147456.0000
Orbital Inclination(rad):   0.9404105173
Rate of Right Ascen(r/s):  -0.8023191341E-008
SQRT(A)  (m 1/2):           5153.569336
Right Ascen at Week(rad):  -0.2162582970E+001
Argument of Perigee(rad):   0.536726995
Mean Anom(rad):            -0.1763748340E+001
Af0(s):                    -0.5722045898E-004
Af1(s/s):                   0.0000000000E+000
week:                        999

******** Week 999 almanac for PRN-25 ********
ID:                         25
Health:                     000
Eccentricity:               0.7513046265E-002
Time of Applicability(s):  147456.0000
Orbital Inclination(rad):   0.9726241138
Rate of Right Ascen(r/s):  -0.7908900866E-008
SQRT(A)  (m 1/2):           5153.532715
Right Ascen at Week(rad):  -0.1065910294E+001
Argument of Perigee(rad):   0.856237291
Mean Anom(rad):             0.2517344490E+001
Af0(s):                    -0.6618499756E-003
Af1(s/s):                  -0.7275957614E-011
week:                        999

******** Week 999 almanac for PRN-26 ********
ID:                         26
Health:                     000
Eccentricity:               0.3042221069E-002
Time of Applicability(s):  147456.0000
Orbital Inclination(rad):   0.9540545573
Rate of Right Ascen(r/s):  -0.8068907531E-008
SQRT(A)  (m 1/2):           5153.684570
Right Ascen at Week(rad):  -0.1090414664E+001
Argument of Perigee(rad):   0.044838603
Mean Anom(rad):             0.1971579517E+001
Af0(s):                     0.1049041748E-004
Af1(s/s):                   0.1091393642E-010
week:                        999

******** Week 999 almanac for PRN-27 ********
ID:                         27
Health:                     000
Eccentricity:               0.6083965302E-002
Time of Applicability(s):  147456.0000
Orbital Inclination(rad):   0.9783166207
Rate of Right Ascen(r/s):  -0.7897471819E-008
SQRT(A)  (m 1/2):           5153.650879
Right Ascen at Week(rad):  -0.2583536735E-001
Argument of Perigee(rad):   0.446419119
Mean Anom(rad):             0.5406458362E-001
Af0(s):                    -0.5722045898E-005
Af1(s/s):                  -0.3637978807E-011
week:                        999

******** Week 999 almanac for PRN-28 ********
ID:                         28
Health:                     000
Eccentricity:               0.1962518692E-001
Time of Applicability(s):  147456.0000
Orbital Inclination(rad):   0.9844165911
Rate of Right Ascen(r/s):  -0.7771752296E-008
SQRT(A)  (m 1/2):           5153.647461
Right Ascen at Week(rad):  -0.9813290054E+000
Argument of Perigee(rad):  -1.508272378
Mean Anom(rad):             0.9491423733E+000
Af0(s):                     0.7495880127E-003
Af1(s/s):                   0.3637978807E-011
week:                        999

******** Week 999 almanac for PRN-29 ********
ID:                         29
Health:                     000
Eccentricity:               0.7352828979E-003
Time of Applicability(s):  147456.0000
Orbital Inclination(rad):   0.9850397708
Rate of Right Ascen(r/s):  -0.7806039439E-008
SQRT(A)  (m 1/2):           5153.572754
Right Ascen at Week(rad):   0.3979099725E-001
Argument of Perigee(rad):   1.661054768
Mean Anom(rad):             0.5856162656E+000
Af0(s):                     0.3566741943E-003
Af1(s/s):                  -0.7275957614E-011
week:                        999

******** Week 999 almanac for PRN-30 ********
ID:                         30
Health:                     000
Eccentricity:               0.3595352173E-002
Time of Applicability(s):  147456.0000
Orbital Inclination(rad):   0.9427953780
Rate of Right Ascen(r/s):  -0.8023191341E-008
SQRT(A)  (m 1/2):           5153.623047
Right Ascen at Week(rad):  -0.2068901535E+001
Argument of Perigee(rad):  -2.970462416
Mean Anom(rad):            -0.2810292127E+001
Af0(s):                     0.9536743164E-005
Af1(s/s):                  -0.3637978807E-011
week:                        999

******** Week 999 almanac for PRN-31 ********
ID:                         31
Health:                     000
Eccentricity:               0.8975505829E-002
Time of Applicability(s):  147456.0000
Orbital Inclination(rad):   0.9618682720
Rate of Right Ascen(r/s):  -0.7817468486E-008
SQRT(A)  (m 1/2):           5153.712402
Right Ascen at Week(rad):  -0.2087299193E+001
Argument of Perigee(rad):  -0.099035388
Mean Anom(rad):            -0.3021640299E+001
Af0(s):                     0.8678436279E-004
Af1(s/s):                  -0.3637978807E-011
week:                        999

******** Week 999 almanac for PRN-32 ********
ID:                         32
Health:                     000
Eccentricity:               0.2304077148E-002
Time of Applicability(s):  147456.0000
Orbital Inclination(rad):   0.9573502192
Rate of Right Ascen(r/s):  -0.7874613724E-008
SQRT(A)  (m 1/2):           5153.658691
Right Ascen at Week(rad):   0.3111476296E+001
Argument of Perigee(rad):  -2.575194591
Mean Anom(rad):             0.8073588810E+000
Af0(s):                    -0.3919601440E-003
Af1(s/s):                   0.1091393642E-010
week:                        999

